AO-10                   
1 14129U 83058B   01086.62888639 -.00000117  00000-0  10000-3 0  7707
2 14129  26.6432 280.1214 5996479 136.8224 290.0519  2.05866163105790
UO-11                   
1 14781U 84021B   01089.52742893  .00006992  00000-0  10783-2 0  4604
2 14781  98.0255  54.4323 0009148 268.4380  91.5781 14.73667940914457
RS-10/11                
1 18129U 87054A   01089.06177859  .00000383  00000-0  40148-3 0  9147
2 18129  82.9238 297.1757 0011627 353.2815   6.8189 13.72554954689782
UO-14                   
1 20437U 90005B   01088.73320009  .00001109  00000-0  44011-3 0  6543
2 20437  98.3644 151.6870 0012045  92.1909 268.0659 14.30665583583690
UO-15                   
1 20438U 90005C   01088.69817761  .00001801  00000-0  71713-3 0  4439
2 20438  98.3242 144.0832 0010504  93.8115 266.4260 14.29757674583426
AO-16                   
1 20439U 90005D   01088.83530770  .00000913  00000-0  36450-3 0  4531
2 20439  98.4141 159.5736 0012153  95.5859 264.6696 14.30779200583734
DO-17                   
1 20440U 90005E   01088.80343550  .00001267  00000-0  49742-3 0  4450
2 20440  98.4262 161.9912 0012162  92.4396 267.8191 14.30989622583786
WO-18                   
1 20441U 90005F   01089.20802909  .00001408  00000-0  55195-3 0  4674
2 20441  98.4203 161.9649 0012795  94.6265 265.6377 14.30875213583838
LO-19                   
1 20442U 90005G   01088.84150651  .00000950  00000-0  37663-3 0  4585
2 20442  98.4328 163.5265 0013156  93.0406 267.2255 14.31018161583825
FO-20                   
1 20480U 90013C   01088.72799623  .00000030  00000-0  13269-3 0  3136
2 20480  99.0657 171.9872 0540467 128.9985 236.0544 12.83290233521909
AO-21                   
1 21087U 91006A   01089.13200394  .00000015  00000-0 -29029-6 0  5029
2 21087  82.9384 108.6644 0035872  18.4840 341.7609 13.74766246510016
RS-12/13                
1 21089U 91007A   01088.70935970  .00000302  00000-0  30295-3 0  3300
2 21089  82.9241 333.9699 0030043  53.2384 307.1524 13.74257058508899
UO-22                   
1 21575U 91050B   01088.94114092  .00001442  00000-0  48937-3 0  1731
2 21575  98.1321 107.4396 0008385  64.9368 295.2685 14.38071962508984
KO-23                   
1 22077U 92052B   01089.50380930 -.00000037  00000-0  10000-3 0  9908
2 22077  66.0865 130.8087 0015746 253.8540 106.0745 12.86361669405547
AO-27                   
1 22825U 93061C   01089.20799215  .00001066  00000-0  44323-3 0  9443
2 22825  98.3634 141.0046 0009487 135.7368 224.4572 14.28370289391307
IO-26                   
1 22826U 93061D   01088.63289182  .00000838  00000-0  35066-3 0  9346
2 22826  98.3677 141.2172 0009697 136.4894 223.7054 14.28534571391259
KO-25                   
1 22828U 93061F   01088.79757168  .00000751  00000-0  31337-3 0  9115
2 22828  98.3643 141.5844 0011092 119.2836 240.9414 14.28958145359454
POSAT                   
1 22829U 93061G   01088.74285354  .00001123  00000-0  45996-3 0  9316
2 22829  98.3645 141.8496 0010911 120.3288 239.8962 14.29007088391369
RS-15                   
1 23439U 94085A   01088.91218632 -.00000027  00000-0  43890-3 0  5652
2 23439  64.8147  78.3871 0166711 240.5739 117.8459 11.27540998257723
FO-29                   
1 24278U 96046B   01088.69055451  .00000345  00000-0  38963-3 0  4203
2 24278  98.5607 324.6587 0350408 207.7362 150.4700 13.52764908227892
MO-30                   
1 24305U 96052B   01087.95350155  .00000204  00000-0  20364-3 0  5085
2 24305  82.9299  54.1144 0030092 330.6253  29.3206 13.73281979228554
TO-31                   
1 25396U 98043C   01088.97026704 -.00000044  00000-0  00000-0 0  4849
2 25396  98.6932 167.2109 0001180 145.8512 214.2758 14.22927969141293
GO-32                   
1 25397U 98043D   01088.89680386  .00000268  00000-0  13960-3 0  6732
2 25397  98.6890 166.7059 0001402  31.0624 329.0639 14.22558308141281
SO-33                   
1 25509U 98061B   01088.37479933  .00003090  00000-0  63023-3 0  2708
2 25509  31.4398  90.8504 0362201  35.7122 326.7187 14.25589356126541
PO-34                   
1 25520U 98064B   01088.50937417  .00007380  00000-0  45770-3 0  3284
2 25520  28.4602 125.8405 0006901  93.2977 266.8403 15.07869613132962
ISS (ZARYA)             
1 25544U 98067A   01089.48744213  .00092979  00000-0  10610-2 0  8143
2 25544  51.5716 125.4558 0007578 233.1363 295.7110 15.61408836134785
SO-35                   
1 25636U 99008C   01088.92986308  .00000194  00000-0  60065-4 0  5070
2 25636  96.4685 229.7789 0151600 359.1088   0.9822 14.41776781110259
UO-36                   
1 25693U 99021A   01089.44957713  .00000926  00000-0  15983-3 0  6830
2 25693  64.5611 317.7411 0049500 257.4307 102.1255 14.73681311104488
WO-39                   
1 26061U 00004A   01087.85517822  .00002453  00000-0  86733-3 0  2158
2 26061 100.1918   7.3343 0036875  70.5295 289.9864 14.35423024 61207
OO-38                   
1 26063U 00004C   01087.79251387  .00001038  00000-0  38487-3 0  1884
2 26063 100.1919   6.8834 0037667  73.5738 286.9577 14.34586399 61161
AO-37                   
1 26065U 00004E   01088.23315687  .00001420  00000-0  51941-3 0  1852
2 26065 100.1922   7.4263 0038417  71.7367 288.7992 14.34533667 61220
AO-40                   
1 26609U 00072B   01087.08128949  .00000015  00000-0  00000+0 0   579
2 26609   5.3256 210.1896 8139344 241.9929  17.6003  1.26965977  1876

